SITRO-AIS-26
1 59067U 24039S   25289.19698416  .00009228  00000-0  75587-3 0  9991
2 59067  95.3900  67.6211 0154018  99.9761 261.8884 14.90491540 88334
SITRO-AIS-27
1 59068U 24039T   25289.16321630  .00008064  00000-0  65628-3 0  9992
2 59068  95.3902  67.7680 0153196  99.1988 262.6600 14.90839811 88340
SITRO-AIS-28
1 59071U 24039U   25289.21392775  .00009268  00000-0  75298-3 0  9991
2 59071  95.3904  67.8366 0153162  98.9174 262.9424 14.90884007 88350
SONATE-2
1 59112U 24043Q   25289.13039007  .00026853  00000-0  64947-3 0  9997
2 59112  97.5287  63.4298 0009856  17.3286 342.8294 15.41064597 90097
HORS-1
1 57188U 23091Y   25289.22414628  .00012814  00000-0  57587-3 0  9990
2 57188  97.5448 346.8979 0009115 221.5033 138.5511 15.21239045127158
HORS-2
1 57196U 23091AG  25289.15952110  .00016320  00000-0  66724-3 0  9993
2 57196  97.5461 348.6662 0008702 217.3478 142.7155 15.24402036127255
ZORKIY-2M 6
1 59774U 24092B   25289.21968545  .00015055  00000-0  65243-3 0  9994
2 59774  97.6258  48.1915 0009565 320.2877  39.7658 15.22443708 78338
ZORKIY-2M 4
1 59775U 24092C   25289.23388946  .00012672  00000-0  54189-3 0  9997
2 59775  97.6391  49.3650 0009612 323.4524  36.6055 15.22938366 78362
SITRO-AIS-53
1 59776U 24092D   25289.05285752  .00021340  00000-0  82437-3 0  9998
2 59776  97.6336  49.4281 0008296 293.7558  66.2809 15.26248476 78373
SITRO-AIS-54
1 59777U 24092E   25288.79308563  .00020822  00000-0  80596-3 0  9993
2 59777  97.6335  49.1489 0008558 295.2345  64.8006 15.26185799 78339
SITRO-AIS-56
1 59778U 24092F   25289.05805609  .00021642  00000-0  82705-3 0  9992
2 59778  97.6332  49.5366 0008673 294.4644  65.5689 15.26601274 78387
RASSVET 1-4
1 59779U 24092G   25289.19352337  .00000419  00000-0  17377-3 0  9995
2 59779  98.6487  43.8642 0011609 201.1830 158.8874 14.31689205 73987
RASSVET 1-5
1 59780U 24092H   25289.19335797  .00000403  00000-0  16765-3 0  9991
2 59780  98.6486  43.8593 0011943 202.6453 157.4204 14.31688790 73981
RASSVET 1-6
1 59781U 24092J   25289.19205948  .00000406  00000-0  16895-3 0  9993
2 59781  98.6486  43.8623 0011844 202.8706 157.1951 14.31688935 73986
SITRO-AIS-55
1 59809U 24092K   25289.02120814  .00021722  00000-0  84281-3 0  9992
2 59809  97.6329  49.2711 0008795 294.6216  65.4105 15.26094976 77860
MESAT-1
1 60209U 24125G   25289.16937757  .00028238  00000-0  66546-3 0  9995
2 60209  97.2619 139.6719 0017611  38.7579 321.4928 15.41721178 71727
ISTSAT-1
1 60238U 24128D   25289.17393737  .00008966  00000-0  58481-3 0  9990
2 60238  61.9915 346.3236 0054954  83.4041 277.3304 15.07274309 69623
IONOSFERA-M 01
1 61735U 24199A   25289.15844374  .00000117  00000-0  71978-4 0  9994
2 61735  98.7466 159.4324 0001961 103.7263 256.4133 14.22695372 93008
IONOSFERA-M 02
1 61736U 24199B   25289.19316589  .00000119  00000-0  72878-4 0  9993
2 61736  98.7465 159.3800 0000805  29.9007 330.2217 14.22697287 96135
SITRO-AIS-16
1 61737U 24199C   25289.21725904  .00004242  00000-0  38510-3 0  9997
2 61737  97.3424 138.7336 0007165 156.0005 204.1552 14.95756655 95323
SITRO-AIS-15
1 61738U 24199D   25289.20527920  .00005133  00000-0  46455-3 0  9992
2 61738  97.3419 138.7499 0007081 156.0625 204.0927 14.95790717 95325
SITRO-AIS-21
1 61739U 24199E   25289.17750227  .00003173  00000-0  30238-3 0  9991
2 61739  97.3420 137.9044 0013425 158.7205 201.4577 14.93960947 95309
SITRO-AIS-22
1 61740U 24199F   25289.16306564  .00004085  00000-0  38570-3 0  9993
2 61740  97.3421 137.9327 0013277 158.7398 201.4377 14.94172907 95450
SITRO-AIS-24
1 61741U 24199G   25289.17185348  .00005183  00000-0  48834-3 0  9994
2 61741  97.3421 137.9263 0013101 160.2095 199.9637 14.94152412 95424
SITRO-AIS-23
1 61742U 24199H   25289.22193992  .00003532  00000-0  33397-3 0  9999
2 61742  97.3425 138.0069 0013116 158.9738 201.2025 14.94200114 95318
SITRO-AIS-13
1 61743U 24199J   25289.16674639  .00004346  00000-0  39199-3 0  9995
2 61743  97.3415 138.7962 0006559 159.6397 200.5088 14.95997953 95483
CSTP-2.11
1 61744U 24199K   25289.19868905  .00026751  00000-0  71641-3 0  9992
2 61744  97.3338 157.5981 0013014  82.5143 277.7580 15.37905702 96690
POLYTECH UNIVERSE-5 (RS70S)
1 61745U 24199L   25289.18759037  .00036185  00000-0  88686-3 0  9996
2 61745  97.3314 158.0960 0010897  87.1144 273.1349 15.40587009 99872
COLIBRI-S (RS67S)
1 61746U 24199M   25289.16605422  .00023432  00000-0  65997-3 0  9994
2 61746  97.3341 157.1880 0013117  84.0455 276.2284 15.36364861 99802
POLYTECH UNIVERSE-4 (RS71S)
1 61747U 24199N   25289.18782602  .00021350  00000-0  61725-3 0  9995
2 61747  97.3344 157.0068 0013409  82.2893 277.9873 15.35561511 99793
SITRO-AIS-44
1 61748U 24199P   25289.16253367  .00034805  00000-0  81356-3 0  9996
2 61748  97.3300 158.4051 0010604  86.0707 274.1753 15.42031463 99896
VIZARD-ION (RS68S)
1 61749U 24199Q   25289.21175054  .00024769  00000-0  64134-3 0  9992
2 61749  97.3342 157.8898 0012587  81.6619 278.6053 15.38965139 99859
MTUSI-1
1 61750U 24199R   25289.18121178  .00031932  00000-0  83962-3 0  9998
2 61750  97.3312 157.4968 0012770  90.0420 270.2289 15.38439104 99835
VLADIVOSTOK-1
1 61751U 24199S   25289.16979262  .00013345  00000-0  44343-3 0  9990
2 61751  97.3327 155.7419 0012692  98.0109 262.2573 15.31240079 99728
SITRO-AIS-14
1 61752U 24199T   25289.19413407  .00005162  00000-0  46651-3 0  9990
2 61752  97.3414 138.7629 0006949 157.7707 202.3817 14.95839175 98629
HORS-3 (RS81S)
1 61753U 24199U   25289.20227986  .00030986  00000-0  80643-3 0  9999
2 61753  97.3312 157.6083 0011591  90.2995 269.9578 15.38776235 99843
HORS-4 (RS82S)
1 61754U 24199V   25289.19278663  .00033645  00000-0  84008-3 0  9990
2 61754  97.3302 157.9067 0011815  88.8713 271.3887 15.40026169 99867
SITRO-AIS-43
1 61755U 24199W   25289.21316118  .00036555  00000-0  85138-3 0  9990
2 61755  97.3300 158.4892 0010547  85.4464 274.7987 15.42130537 99905
SITRO-AIS-42
1 61756U 24199X   25289.20491471  .00027704  00000-0  64459-3 0  9995
2 61756  97.3301 158.5040 0010642  85.1658 275.0804 15.42215549 99900
HORIZON (RS59S)
1 61757U 24199Y   25289.21195213  .00051596  00000-0  10478-2 0  9999
2 61757  97.3315 159.3531 0011471  76.1097 284.1428 15.46105356 99954
SITRO-AIS-20
1 61758U 24199Z   25289.21713044  .00004171  00000-0  37570-3 0  9998
2 61758  97.3423 138.8700 0006480 157.3472 202.8037 14.96074661 98633
SITRO-AIS-19
1 61759U 24199AA  25289.21721916  .00004856  00000-0  43674-3 0  9998
2 61759  97.3422 138.8717 0006383 158.9123 201.2363 14.96062061 98639
SITRO-AIS-41
1 61760U 24199AB  25289.19134887  .00037328  00000-0  87879-3 0  9997
2 61760  97.3307 158.3854 0010607  85.7760 274.4699 15.41801512 99896
2024-199AC
1 61761U 24199AC  25289.20125003  .00032502  00000-0  82406-3 0  9990
2 61761  97.3301 157.8988 0010537  87.5762 272.6690 15.39580481 99861
ARCTICSAT-1 (RS74S)
1 61762U 24199AD  25289.16774625  .00046839  00000-0  97694-3 0  9999
2 61762  97.3317 159.2545 0011647  75.7266 284.5276 15.45342776 99946
SIT-HSE
1 61763U 24199AE  25289.19250073  .00022321  00000-0  56650-3 0  9996
2 61763  97.3318 158.2369 0009094  91.5780 268.6507 15.39639551 99887
SIT-2086
1 61764U 24199AF  25289.15957994  .00022668  00000-0  57406-3 0  9993
2 61764  97.3312 158.2754 0009662  81.0861 279.1478 15.39697468 96720
MORDOVIA-IOT (RS50S)
1 61765U 24199AG  25289.20839231  .00095976  00000-0  14556-2 0  9993
2 61765  97.3272 160.9551 0010306  71.9961 288.2415 15.54226733 96910
RUZAEVKA-390 (RS44S)
1 61766U 24199AH  25289.19279109  .00078701  00000-0  13446-2 0  9998
2 61766  97.3276 160.3653 0010489  72.9094 287.3306 15.50968197 96879
2024-199AJ (? AHMAT-2)
1 61767U 24199AJ  25289.16164259  .00133420  00000-0  16494-2 0  9991
2 61767  97.3228 161.7190 0009236  68.8451 291.3791 15.59626420 96969
HOD-HOD
1 61768U 24199AK  25289.21037167  .00020775  00000-0  56077-3 0  9995
2 61768  97.3316 157.6315 0009371  93.4783 266.7534 15.37754520 96693
KOSAR
1 61769U 24199AL  25289.19986468  .00030388  00000-0  78604-3 0  9991
2 61769  97.3313 157.9275 0009211  93.1163 267.1137 15.38994306 96717
SITRO-AIS-48
1 61771U 24199AN  25289.16157648  .00032894  00000-0  85148-3 0  9996
2 61771  97.3285 157.2488 0013418  97.8144 262.4625 15.38906646 96676
HYPERVIEW-1G (RS66S)
1 61772U 24199AP  25289.15993403  .00039792  00000-0  92425-3 0  9993
2 61772  97.3301 158.1024 0014046  89.2899 270.9958 15.42148036 96727
SITRO-AIS-47
1 61773U 24199AQ  25289.20360617  .00033900  00000-0  87075-3 0  9995
2 61773  97.3287 157.3525 0013340  97.8606 262.4155 15.39138449 96688
SITRO-AIS-46
1 61774U 24199AR  25289.21446648  .00035570  00000-0  89948-3 0  9992
2 61774  97.3282 157.4725 0013392  98.1186 262.1580 15.39606067 96697
CSTP-2.2
1 61775U 24199AS  25289.18933428  .00018858  00000-0  54538-3 0  9993
2 61775  97.3327 156.4681 0020212  81.0249 279.3281 15.35459438 96612
SITRO-AIS-40
1 61776U 24199AT  25289.21573537  .00028010  00000-0  70880-3 0  9998
2 61776  97.3283 157.4747 0013482  98.0940 262.1836 15.39632320 99846
CSTP-2.1
1 61777U 24199AU  25288.53606903  .00016720  00000-0  48386-3 0  9998
2 61777  97.3328 155.8145 0019254  83.7502 276.5934 15.35482852 96517
SITRO-AIS-39
1 61778U 24199AV  25289.19209124  .00034150  00000-0  88763-3 0  9996
2 61778  97.3286 157.2101 0013684  98.6090 261.6707 15.38768776 96672
ALTAIR (RS65S)
1 61779U 24199AW  25289.19486501  .00012226  00000-0  40654-3 0  9990
2 61779  97.3346 155.5813 0016649  98.8199 261.4929 15.31181459 99708
SITRO-AIS-37
1 61780U 24199AX  25289.16624784  .00034510  00000-0  88835-3 0  9999
2 61780  97.3293 157.2824 0013896  98.7079 261.5741 15.39060010 96672
ASRTU-1 (RS64S/BJ2CR)
1 61781U 24199AY  25289.16186426  .00011183  00000-0  38138-3 0  9998
2 61781  97.3329 155.2877 0017041  99.7598 260.5568 15.30379993 96537
TUSUR GO (RS78S)
1 61782U 24199AZ  25289.18031192  .00055581  00000-0  11665-2 0  9995
2 61782  97.3289 158.5127 0014008  87.3281 272.9571 15.45086713 96755
